[{"OBJECT_NAME":"JILIN-1 GAOFEN 2F","OBJECT_ID":"2021-097A","EPOCH":"2026-03-09T22:15:16.366464","MEAN_MOTION":15.06938169,"ECCENTRICITY":0.00186372,"INCLINATION":97.6538,"RA_OF_ASC_NODE":195.5232,"ARG_OF_PERICENTER":201.1609,"MEAN_ANOMALY":158.885,"EPHEMERIS_TYPE":0,"CLASSIFICATION_TYPE":"U","NORAD_CAT_ID":49338,"ELEMENT_SET_NO":999,"REV_AT_EPOCH":24136,"BSTAR":0.0003789548,"MEAN_MOTION_DOT":5.624e-5,"MEAN_MOTION_DDOT":0},{"OBJECT_NAME":"STARLINK-5736","OBJECT_ID":"2023-020R","EPOCH":"2026-03-09T22:00:01.999584","MEAN_MOTION":15.10700705,"ECCENTRICITY":0.00015383,"INCLINATION":43.0001,"RA_OF_ASC_NODE":3.1577,"ARG_OF_PERICENTER":270.962,"MEAN_ANOMALY":184.2536,"EPHEMERIS_TYPE":0,"CLASSIFICATION_TYPE":"U","NORAD_CAT_ID":55584,"ELEMENT_SET_NO":999,"REV_AT_EPOCH":578,"BSTAR":0.00096388062,"MEAN_MOTION_DOT":0.00016061,"MEAN_MOTION_DDOT":0}]
